IRNSS-1G                
1 41469U 16027A   23116.84690687 -.00000334  00000+0  00000+0 0  9990
2 41469   2.5782 138.3561 0007051 302.5438 208.1174  1.00272414 25679
GSAT0211 (GALILEO 14)   
1 41549U 16030A   23116.43573852 -.00000015  00000+0  00000+0 0  9998
2 41549  55.5807 253.2750 0002926 358.2104   1.7554  1.70474013 43085
COSMOS 2516 [GLONASS-M] 
1 41554U 16032A   23114.24517167  .00000008  00000+0  00000+0 0  9991
2 41554  63.8758 230.6663 0014751 212.8128 147.0962  2.13106525 53727
BEIDOU-2 G7             
1 41586U 16037A   23116.86421372 -.00000356  00000+0  00000+0 0  9990
2 41586   1.5743  65.7830 0009200 348.2220 222.2499  1.00274957 25278
EUTELSAT 117 WEST B     
1 41589U 16038B   23117.09900591 -.00000013  00000+0  00000+0 0  9995
2 41589   0.0122 104.0842 0000025 237.4770 151.9127  1.00270250 25202
GSAT0207 (GALILEO 15)   
1 41859U 16069A   23115.21622069  .00000041  00000+0  00000+0 0  9992
2 41859  54.9160 132.9339 0005852 291.8455  68.1288  1.70474757 39814
GSAT0213 (GALILEO 17)   
1 41861U 16069C   23116.02266893  .00000046  00000+0  00000+0 0  9999
2 41861  54.9157 132.9143 0005780 275.1277  84.8429  1.70473484 39945
GSAT0214 (GALILEO 18)   
1 41862U 16069D   23116.16981146  .00000047  00000+0  00000+0 0  9991
2 41862  54.9143 132.9044 0004797 277.5820  82.4001  1.70473483 40073
SES-15                  
1 42709U 17026A   23116.72367991  .00000058  00000+0  00000+0 0  9996
2 42709   0.0347  54.5004 0000369 288.9146   2.4261  1.00270365 22634
QZS-2 (MICHIBIKI-2)     
1 42738U 17028A   23116.70711859 -.00000225  00000+0  00000+0 0  9991
2 42738  41.2556 259.7228 0740395 270.6648  76.7068  1.00251117 21639
QZS-3 (MICHIBIKI-3)     
1 42917U 17048A   23116.80680156 -.00000350  00000+0  00000+0 0  9997
2 42917   0.0534 197.6852 0002321 192.2687 242.0635  1.00272632 20757
COSMOS 2522 [GLONASS-M] 
1 42939U 17055A   23116.78434755 -.00000010  00000+0  00000+0 0  9991
2 42939  64.1099 231.0642 0006816 236.1551 123.3691  2.13101908 43524
QZS-4 (MICHIBIKI-4)     
1 42965U 17062A   23116.68765414 -.00000341  00000+0  00000+0 0  9993
2 42965  40.6793 358.1011 0747026 270.6399 332.6042  1.00269018 20300
