[{"OBJECT_NAME":"IRNSS-1G (I07)","OBJECT_ID":"2016-027A","EPOCH":"2023-04-26T20:19:32.753568","MEAN_MOTION":1.00272414,"ECCENTRICITY":0.0007051,"INCLINATION":2.5782,"RA_OF_ASC_NODE":138.3561,"ARG_OF_PERICENTER":302.5438,"MEAN_ANOMALY":208.1174,"EPHEMERIS_TYPE":0,"CLASSIFICATION_TYPE":"U","NORAD_CAT_ID":41469,"ELEMENT_SET_NO":999,"REV_AT_EPOCH":2567,"BSTAR":0,"MEAN_MOTION_DOT":-3.34e-6,"MEAN_MOTION_DDOT":0},{"OBJECT_NAME":"GSAT0211 (PRN E02)","OBJECT_ID":"2016-030A","EPOCH":"2023-04-26T10:27:27.808128","MEAN_MOTION":1.70474013,"ECCENTRICITY":0.0002926,"INCLINATION":55.5807,"RA_OF_ASC_NODE":253.275,"ARG_OF_PERICENTER":358.2104,"MEAN_ANOMALY":1.7554,"EPHEMERIS_TYPE":0,"CLASSIFICATION_TYPE":"U","NORAD_CAT_ID":41549,"ELEMENT_SET_NO":999,"REV_AT_EPOCH":4308,"BSTAR":0,"MEAN_MOTION_DOT":-1.5e-7,"MEAN_MOTION_DDOT":0},{"OBJECT_NAME":"COSMOS 2516 (753)","OBJECT_ID":"2016-032A","EPOCH":"2023-04-24T05:53:02.832288","MEAN_MOTION":2.13106525,"ECCENTRICITY":0.0014751,"INCLINATION":63.8758,"RA_OF_ASC_NODE":230.6663,"ARG_OF_PERICENTER":212.8128,"MEAN_ANOMALY":147.0962,"EPHEMERIS_TYPE":0,"CLASSIFICATION_TYPE":"U","NORAD_CAT_ID":41554,"ELEMENT_SET_NO":999,"REV_AT_EPOCH":5372,"BSTAR":0,"MEAN_MOTION_DOT":8.0e-8,"MEAN_MOTION_DDOT":0},{"OBJECT_NAME":"BEIDOU-2 G7 (C03)","OBJECT_ID":"2016-037A","EPOCH":"2023-04-26T20:44:28.065408","MEAN_MOTION":1.00274957,"ECCENTRICITY":0.00092,"INCLINATION":1.5743,"RA_OF_ASC_NODE":65.783,"ARG_OF_PERICENTER":348.222,"MEAN_ANOMALY":222.2499,"EPHEMERIS_TYPE":0,"CLASSIFICATION_TYPE":"U","NORAD_CAT_ID":41586,"ELEMENT_SET_NO":999,"REV_AT_EPOCH":2527,"BSTAR":0,"MEAN_MOTION_DOT":-3.56e-6,"MEAN_MOTION_DDOT":0},{"OBJECT_NAME":"E 117 W B (WAAS\/PRN 131)","OBJECT_ID":"2016-038B","EPOCH":"2023-04-27T02:22:34.110624","MEAN_MOTION":1.0027025,"ECCENTRICITY":2.5e-6,"INCLINATION":0.0122,"RA_OF_ASC_NODE":104.0842,"ARG_OF_PERICENTER":237.477,"MEAN_ANOMALY":151.9127,"EPHEMERIS_TYPE":0,"CLASSIFICATION_TYPE":"U","NORAD_CAT_ID":41589,"ELEMENT_SET_NO":999,"REV_AT_EPOCH":2520,"BSTAR":0,"MEAN_MOTION_DOT":-1.3e-7,"MEAN_MOTION_DDOT":0},{"OBJECT_NAME":"GSAT0207 (PRN E07)","OBJECT_ID":"2016-069A","EPOCH":"2023-04-25T05:11:21.467616","MEAN_MOTION":1.70474757,"ECCENTRICITY":0.0005852,"INCLINATION":54.916,"RA_OF_ASC_NODE":132.9339,"ARG_OF_PERICENTER":291.8455,"MEAN_ANOMALY":68.1288,"EPHEMERIS_TYPE":0,"CLASSIFICATION_TYPE":"U","NORAD_CAT_ID":41859,"ELEMENT_SET_NO":999,"REV_AT_EPOCH":3981,"BSTAR":0,"MEAN_MOTION_DOT":4.1e-7,"MEAN_MOTION_DDOT":0},{"OBJECT_NAME":"GSAT0213 (PRN E04)","OBJECT_ID":"2016-069C","EPOCH":"2023-04-26T00:32:38.595552","MEAN_MOTION":1.70473484,"ECCENTRICITY":0.000578,"INCLINATION":54.9157,"RA_OF_ASC_NODE":132.9143,"ARG_OF_PERICENTER":275.1277,"MEAN_ANOMALY":84.8429,"EPHEMERIS_TYPE":0,"CLASSIFICATION_TYPE":"U","NORAD_CAT_ID":41861,"ELEMENT_SET_NO":999,"REV_AT_EPOCH":3994,"BSTAR":0,"MEAN_MOTION_DOT":4.6e-7,"MEAN_MOTION_DDOT":0},{"OBJECT_NAME":"GSAT0214 (PRN E05)","OBJECT_ID":"2016-069D","EPOCH":"2023-04-26T04:04:31.710144","MEAN_MOTION":1.70473483,"ECCENTRICITY":0.0004797,"INCLINATION":54.9143,"RA_OF_ASC_NODE":132.9044,"ARG_OF_PERICENTER":277.582,"MEAN_ANOMALY":82.4001,"EPHEMERIS_TYPE":0,"CLASSIFICATION_TYPE":"U","NORAD_CAT_ID":41862,"ELEMENT_SET_NO":999,"REV_AT_EPOCH":4007,"BSTAR":0,"MEAN_MOTION_DOT":4.7e-7,"MEAN_MOTION_DDOT":0},{"OBJECT_NAME":"SES-15 (WAAS\/PRN 133)","OBJECT_ID":"2017-026A","EPOCH":"2023-04-26T17:22:05.944224","MEAN_MOTION":1.00270365,"ECCENTRICITY":3.69e-5,"INCLINATION":0.0347,"RA_OF_ASC_NODE":54.5004,"ARG_OF_PERICENTER":288.9146,"MEAN_ANOMALY":2.4261,"EPHEMERIS_TYPE":0,"CLASSIFICATION_TYPE":"U","NORAD_CAT_ID":42709,"ELEMENT_SET_NO":999,"REV_AT_EPOCH":2263,"BSTAR":0,"MEAN_MOTION_DOT":5.8e-7,"MEAN_MOTION_DDOT":0},{"OBJECT_NAME":"QZS-2 (PRN 194\/184)","OBJECT_ID":"2017-028A","EPOCH":"2023-04-26T16:58:15.046176","MEAN_MOTION":1.00251117,"ECCENTRICITY":0.0740395,"INCLINATION":41.2556,"RA_OF_ASC_NODE":259.7228,"ARG_OF_PERICENTER":270.6648,"MEAN_ANOMALY":76.7068,"EPHEMERIS_TYPE":0,"CLASSIFICATION_TYPE":"U","NORAD_CAT_ID":42738,"ELEMENT_SET_NO":999,"REV_AT_EPOCH":2163,"BSTAR":0,"MEAN_MOTION_DOT":-2.25e-6,"MEAN_MOTION_DDOT":0},{"OBJECT_NAME":"QZS-3 (PRN 199\/189)","OBJECT_ID":"2017-048A","EPOCH":"2023-04-26T19:21:47.654784","MEAN_MOTION":1.00272632,"ECCENTRICITY":0.0002321,"INCLINATION":0.0534,"RA_OF_ASC_NODE":197.6852,"ARG_OF_PERICENTER":192.2687,"MEAN_ANOMALY":242.0635,"EPHEMERIS_TYPE":0,"CLASSIFICATION_TYPE":"U","NORAD_CAT_ID":42917,"ELEMENT_SET_NO":999,"REV_AT_EPOCH":2075,"BSTAR":0,"MEAN_MOTION_DOT":-3.5e-6,"MEAN_MOTION_DDOT":0},{"OBJECT_NAME":"COSMOS 2522 (752)","OBJECT_ID":"2017-055A","EPOCH":"2023-04-26T18:49:27.628320","MEAN_MOTION":2.13101908,"ECCENTRICITY":0.0006816,"INCLINATION":64.1099,"RA_OF_ASC_NODE":231.0642,"ARG_OF_PERICENTER":236.1551,"MEAN_ANOMALY":123.3691,"EPHEMERIS_TYPE":0,"CLASSIFICATION_TYPE":"U","NORAD_CAT_ID":42939,"ELEMENT_SET_NO":999,"REV_AT_EPOCH":4352,"BSTAR":0,"MEAN_MOTION_DOT":-1.0e-7,"MEAN_MOTION_DDOT":0},{"OBJECT_NAME":"QZS-4 (PRN 195\/185)","OBJECT_ID":"2017-062A","EPOCH":"2023-04-26T16:30:13.317696","MEAN_MOTION":1.00269018,"ECCENTRICITY":0.0747026,"INCLINATION":40.6793,"RA_OF_ASC_NODE":358.1011,"ARG_OF_PERICENTER":270.6399,"MEAN_ANOMALY":332.6042,"EPHEMERIS_TYPE":0,"CLASSIFICATION_TYPE":"U","NORAD_CAT_ID":42965,"ELEMENT_SET_NO":999,"REV_AT_EPOCH":2030,"BSTAR":0,"MEAN_MOTION_DOT":-3.41e-6,"MEAN_MOTION_DDOT":0}]
